start=new Date('2021-10-09T00:00:00.000Z').valueOf();
sats=[{"DECAY_DATE":null,"EPOCH":"2021-10-08T22:00:00.999936","GP_ID":"186597158","INCLINATION":"70.0012","LAUNCH_DATE":"2021-09-14","REV_AT_EPOCH":"368","MEAN_MOTION_DDOT":"0.0000000000000","MEAN_MOTION":"15.69755808","RA_OF_ASC_NODE":"57.1731","COUNTRY_CODE":"US","OBJECT_TYPE":"PAYLOAD","TLE_LINE1":"1 49148U 21082U   21281.91667824 -.00068682  00000-0 -57807-3 0  9998","PERIAPSIS":"357.095","RCS_SIZE":"LARGE","SITE":"AFWTR","TLE_LINE2":"2 49148  70.0012  57.1731 0003714 286.1174 113.8506 15.69755808  3681","SEMIMAJOR_AXIS":"6737.733","MEAN_ELEMENT_THEORY":"SGP4","FILE":"3152020","CENTER_NAME":"EARTH","EPHEMERIS_TYPE":"0","TIME_SYSTEM":"UTC","ELEMENT_SET_NO":"999","MEAN_ANOMALY":"113.8506","CLASSIFICATION_TYPE":"U","OBJECT_ID":"2021-082U","ECCENTRICITY":"0.00037140","BSTAR":"-0.00057807000000","NORAD_CAT_ID":"49148","REF_FRAME":"TEME","APOAPSIS":"362.100","OBJECT_NAME":"STARLINK-3048","PERIOD":"91.734","ARG_OF_PERICENTER":"286.1174","MEAN_MOTION_DOT":"-0.00068682"},{"TIME_SYSTEM":"UTC","ELEMENT_SET_NO":"999","MEAN_ANOMALY":"112.9963","CENTER_NAME":"EARTH","EPHEMERIS_TYPE":"0","APOAPSIS":"362.129","OBJECT_NAME":"STARLINK-3053","REF_FRAME":"TEME","NORAD_CAT_ID":"49149","MEAN_MOTION_DOT":"0.00005767","ARG_OF_PERICENTER":"284.8524","PERIOD":"91.734","CLASSIFICATION_TYPE":"U","ECCENTRICITY":"0.00037370","BSTAR":"0.00005004300000","OBJECT_ID":"2021-082V","COUNTRY_CODE":"US","RA_OF_ASC_NODE":"57.1750","MEAN_MOTION":"15.69751159","OBJECT_TYPE":"PAYLOAD","GP_ID":"186597373","INCLINATION":"70.0019","DECAY_DATE":null,"EPOCH":"2021-10-08T22:00:00.999936","REV_AT_EPOCH":"368","MEAN_MOTION_DDOT":"0.0000000000000","LAUNCH_DATE":"2021-09-14","SEMIMAJOR_AXIS":"6737.746","MEAN_ELEMENT_THEORY":"SGP4","FILE":"3152020","TLE_LINE2":"2 49149  70.0019  57.1750 0003737 284.8524 112.9963 15.69751159  3681","SITE":"AFWTR","TLE_LINE1":"1 49149U 21082V   21281.91667824  .00005767  00000-0  50043-4 0  9998","RCS_SIZE":"LARGE","PERIAPSIS":"357.093"},{"REF_FRAME":"TEME","NORAD_CAT_ID":"49150","APOAPSIS":"362.201","OBJECT_NAME":"STARLINK-3104","PERIOD":"91.737","ARG_OF_PERICENTER":"284.6558","MEAN_MOTION_DOT":"0.00004016","CLASSIFICATION_TYPE":"U","OBJECT_ID":"2021-082W","ECCENTRICITY":"0.00036780","BSTAR":"0.00003545700000","TIME_SYSTEM":"UTC","ELEMENT_SET_NO":"999","MEAN_ANOMALY":"119.5423","CENTER_NAME":"EARTH","EPHEMERIS_TYPE":"0","SEMIMAJOR_AXIS":"6737.858","FILE":"3152020","MEAN_ELEMENT_THEORY":"SGP4","TLE_LINE1":"1 49150U 21082W   21281.91667824  .00004016  00000-0  35457-4 0  9998","PERIAPSIS":"357.245","RCS_SIZE":"LARGE","SITE":"AFWTR","TLE_LINE2":"2 49150  70.0025  57.1669 0003678 284.6558 119.5423 15.69712040  3688","RA_OF_ASC_NODE":"57.1669","MEAN_MOTION":"15.69712040","COUNTRY_CODE":"US","OBJECT_TYPE":"PAYLOAD","DECAY_DATE":null,"EPOCH":"2021-10-08T22:00:00.999936","GP_ID":"186597606","INCLINATION":"70.0025","LAUNCH_DATE":"2021-09-14","REV_AT_EPOCH":"368","MEAN_MOTION_DDOT":"0.0000000000000"},{"CLASSIFICATION_TYPE":"U","BSTAR":"0.00003620500000","ECCENTRICITY":"0.00037900","OBJECT_ID":"2021-082X","OBJECT_NAME":"STARLINK-3102","APOAPSIS":"362.204","REF_FRAME":"TEME","NORAD_CAT_ID":"49151","MEAN_MOTION_DOT":"0.00004110","PERIOD":"91.735","ARG_OF_PERICENTER":"284.4696","EPHEMERIS_TYPE":"0","CENTER_NAME":"EARTH","ELEMENT_SET_NO":"999","TIME_SYSTEM":"UTC","MEAN_ANOMALY":"117.6003","TLE_LINE2":"2 49151  70.0024  57.1692 0003790 284.4696 117.6003 15.69737477  3684","SITE":"AFWTR","PERIAPSIS":"357.097","RCS_SIZE":"LARGE","TLE_LINE1":"1 49151U 21082X   21281.91667824  .00004110  00000-0  36205-4 0  9996","SEMIMAJOR_AXIS":"6737.785","FILE":"3152020","MEAN_ELEMENT_THEORY":"SGP4","INCLINATION":"70.0024","GP_ID":"186597817","EPOCH":"2021-10-08T22:00:00.999936","DECAY_DATE":null,"MEAN_MOTION_DDOT":"0.0000000000000","REV_AT_EPOCH":"368","LAUNCH_DATE":"2021-09-14","COUNTRY_CODE":"US","RA_OF_ASC_NODE":"57.1692","MEAN_MOTION":"15.69737477","OBJECT_TYPE":"PAYLOAD"},{"OBJECT_NAME":"STARLINK-3081","APOAPSIS":"362.192","REF_FRAME":"TEME","NORAD_CAT_ID":"49152","MEAN_MOTION_DOT":"0.00003218","ARG_OF_PERICENTER":"286.4135","PERIOD":"91.735","CLASSIFICATION_TYPE":"U","BSTAR":"0.00002873500000","ECCENTRICITY":"0.00037810","OBJECT_ID":"2021-082Y","ELEMENT_SET_NO":"999","TIME_SYSTEM":"UTC","MEAN_ANOMALY":"124.1759","EPHEMERIS_TYPE":"0","CENTER_NAME":"EARTH","SEMIMAJOR_AXIS":"6737.779","FILE":"3151379","MEAN_ELEMENT_THEORY":"SGP4","TLE_LINE2":"2 49152  70.0011  57.1596 0003781 286.4135 124.1759 15.69739542  5121","SITE":"AFWTR","RCS_SIZE":"LARGE","PERIAPSIS":"357.097","TLE_LINE1":"1 49152U 21082Y   21281.91667824  .00003218  00000-0  28735-4 0  9994","COUNTRY_CODE":"US","RA_OF_ASC_NODE":"57.1596","MEAN_MOTION":"15.69739542","OBJECT_TYPE":"PAYLOAD","INCLINATION":"70.0011","GP_ID":"186559358","EPOCH":"2021-10-08T22:00:00.999936","DECAY_DATE":null,"MEAN_MOTION_DDOT":"0.0000000000000","REV_AT_EPOCH":"512","LAUNCH_DATE":"2021-09-14"},{"CLASSIFICATION_TYPE":"U","ECCENTRICITY":"0.00038650","BSTAR":"0.00005028100000","OBJECT_ID":"2021-082Z","APOAPSIS":"362.245","OBJECT_NAME":"STARLINK-3072","NORAD_CAT_ID":"49153","REF_FRAME":"TEME","MEAN_MOTION_DOT":"0.00005792","ARG_OF_PERICENTER":"281.7759","PERIOD":"91.735","CENTER_NAME":"EARTH","EPHEMERIS_TYPE":"0","TIME_SYSTEM":"UTC","ELEMENT_SET_NO":"999","MEAN_ANOMALY":"124.4116","TLE_LINE2":"2 49153  70.0013  57.1653 0003865 281.7759 124.4116 15.69740626  3685","SITE":"AFWTR","TLE_LINE1":"1 49153U 21082Z   21281.91667824  .00005792  00000-0  50281-4 0  9995","RCS_SIZE":"LARGE","PERIAPSIS":"357.037","SEMIMAJOR_AXIS":"6737.776","MEAN_ELEMENT_THEORY":"SGP4","FILE":"3152020","GP_ID":"186597713","INCLINATION":"70.0013","DECAY_DATE":null,"EPOCH":"2021-10-08T22:00:00.999936","REV_AT_EPOCH":"368","MEAN_MOTION_DDOT":"0.0000000000000","LAUNCH_DATE":"2021-09-14","COUNTRY_CODE":"US","RA_OF_ASC_NODE":"57.1653","MEAN_MOTION":"15.69740626","OBJECT_TYPE":"PAYLOAD"},{"COUNTRY_CODE":"US","MEAN_MOTION":"15.69720792","RA_OF_ASC_NODE":"57.1568","OBJECT_TYPE":"PAYLOAD","GP_ID":"186597266","INCLINATION":"70.0015","DECAY_DATE":null,"EPOCH":"2021-10-08T22:00:00.999936","REV_AT_EPOCH":"368","MEAN_MOTION_DDOT":"0.0000000000000","LAUNCH_DATE":"2021-09-14","SEMIMAJOR_AXIS":"6737.833","MEAN_ELEMENT_THEORY":"SGP4","FILE":"3152020","SITE":"AFWTR","TLE_LINE2":"2 49154  70.0015  57.1568 0003777 285.9305 126.8163 15.69720792  3688","TLE_LINE1":"1 49154U 21082AA  21281.91667824 -.00017954  00000-0 -14910-3 0  9999","PERIAPSIS":"357.153","RCS_SIZE":"LARGE","TIME_SYSTEM":"UTC","ELEMENT_SET_NO":"999","MEAN_ANOMALY":"126.8163","CENTER_NAME":"EARTH","EPHEMERIS_TYPE":"0","APOAPSIS":"362.243","OBJECT_NAME":"STARLINK-3068","REF_FRAME":"TEME","NORAD_CAT_ID":"49154","MEAN_MOTION_DOT":"-0.00017954","ARG_OF_PERICENTER":"285.9305","PERIOD":"91.736","CLASSIFICATION_TYPE":"U","ECCENTRICITY":"0.00037770","BSTAR":"-0.00014910000000","OBJECT_ID":"2021-082AA"},{"MEAN_ANOMALY":"126.5260","TIME_SYSTEM":"UTC","ELEMENT_SET_NO":"999","CENTER_NAME":"EARTH","EPHEMERIS_TYPE":"0","MEAN_MOTION_DOT":"0.00003092","ARG_OF_PERICENTER":"281.9168","PERIOD":"91.735","APOAPSIS":"362.022","OBJECT_NAME":"STARLINK-3060","REF_FRAME":"TEME","NORAD_CAT_ID":"49155","ECCENTRICITY":"0.00035570","BSTAR":"0.00002767300000","OBJECT_ID":"2021-082AB","CLASSIFICATION_TYPE":"U","OBJECT_TYPE":"PAYLOAD","COUNTRY_CODE":"US","RA_OF_ASC_NODE":"57.1607","MEAN_MOTION":"15.69746214","REV_AT_EPOCH":"368","MEAN_MOTION_DDOT":"0.0000000000000","LAUNCH_DATE":"2021-09-14","GP_ID":"186597905","INCLINATION":"70.0023","DECAY_DATE":null,"EPOCH":"2021-10-08T22:00:00.999936","MEAN_ELEMENT_THEORY":"SGP4","FILE":"3152020","SEMIMAJOR_AXIS":"6737.760","SITE":"AFWTR","TLE_LINE2":"2 49155  70.0023  57.1607 0003557 281.9168 126.5260 15.69746214  3683","TLE_LINE1":"1 49155U 21082AB  21281.91667824  .00003092  00000-0  27673-4 0  9997","PERIAPSIS":"357.229","RCS_SIZE":"LARGE"},{"COUNTRY_CODE":"US","MEAN_MOTION":"15.69715100","RA_OF_ASC_NODE":"57.1482","OBJECT_TYPE":"PAYLOAD","INCLINATION":"70.0023","GP_ID":"186597159","EPOCH":"2021-10-08T22:00:00.999936","DECAY_DATE":null,"MEAN_MOTION_DDOT":"0.0000000000000","REV_AT_EPOCH":"368","LAUNCH_DATE":"2021-09-14","SEMIMAJOR_AXIS":"6737.849","FILE":"3152020","MEAN_ELEMENT_THEORY":"SGP4","TLE_LINE2":"2 49156  70.0023  57.1482 0003585 284.9928 134.0852 15.69715100  3684","SITE":"AFWTR","PERIAPSIS":"357.299","RCS_SIZE":"LARGE","TLE_LINE1":"1 49156U 21082AC  21281.91667824  .00002058  00000-0  19041-4 0  9999","ELEMENT_SET_NO":"999","TIME_SYSTEM":"UTC","MEAN_ANOMALY":"134.0852","EPHEMERIS_TYPE":"0","CENTER_NAME":"EARTH","OBJECT_NAME":"STARLINK-3085","APOAPSIS":"362.130","NORAD_CAT_ID":"49156","REF_FRAME":"TEME","MEAN_MOTION_DOT":"0.00002058","PERIOD":"91.736","ARG_OF_PERICENTER":"284.9928","CLASSIFICATION_TYPE":"U","BSTAR":"0.00001904100000","ECCENTRICITY":"0.00035850","OBJECT_ID":"2021-082AC"},{"CLASSIFICATION_TYPE":"U","OBJECT_ID":"2021-082AD","ECCENTRICITY":"0.00036250","BSTAR":"0.00001475500000","REF_FRAME":"TEME","NORAD_CAT_ID":"49157","APOAPSIS":"362.161","OBJECT_NAME":"STARLINK-3051","ARG_OF_PERICENTER":"284.1640","PERIOD":"91.736","MEAN_MOTION_DOT":"0.00001547","CENTER_NAME":"EARTH","EPHEMERIS_TYPE":"0","TIME_SYSTEM":"UTC","ELEMENT_SET_NO":"999","MEAN_ANOMALY":"130.5109","TLE_LINE1":"1 49157U 21082AD  21281.91667824  .00001547  00000-0  14755-4 0  9999","RCS_SIZE":"LARGE","PERIAPSIS":"357.276","TLE_LINE2":"2 49157  70.0012  57.1548 0003625 284.1640 130.5109 15.69713636  3682","SITE":"AFWTR","SEMIMAJOR_AXIS":"6737.853","FILE":"3152020","MEAN_ELEMENT_THEORY":"SGP4","DECAY_DATE":null,"EPOCH":"2021-10-08T22:00:00.999936","GP_ID":"186597374","INCLINATION":"70.0012","LAUNCH_DATE":"2021-09-14","REV_AT_EPOCH":"368","MEAN_MOTION_DDOT":"0.0000000000000","RA_OF_ASC_NODE":"57.1548","MEAN_MOTION":"15.69713636","COUNTRY_CODE":"US","OBJECT_TYPE":"PAYLOAD"}];
